[{"OBJECT_NAME":"STARLINK-2343","OBJECT_ID":"2021-021AA","EPOCH":"2026-03-10T00:00:02.999808","MEAN_MOTION":15.26280353,"ECCENTRICITY":0.0001319,"INCLINATION":53.1422,"RA_OF_ASC_NODE":279.4171,"ARG_OF_PERICENTER":82.2814,"MEAN_ANOMALY":282.8013,"EPHEMERIS_TYPE":0,"CLASSIFICATION_TYPE":"U","NORAD_CAT_ID":47884,"ELEMENT_SET_NO":999,"REV_AT_EPOCH":579,"BSTAR":0.057497756,"MEAN_MOTION_DOT":0.01671594,"MEAN_MOTION_DDOT":0},{"OBJECT_NAME":"OBJECT D","OBJECT_ID":"2026-023D","EPOCH":"2026-03-09T17:19:13.762848","MEAN_MOTION":15.22920595,"ECCENTRICITY":0.00208003,"INCLINATION":96.6418,"RA_OF_ASC_NODE":141.6791,"ARG_OF_PERICENTER":127.3034,"MEAN_ANOMALY":233.0105,"EPHEMERIS_TYPE":0,"CLASSIFICATION_TYPE":"U","NORAD_CAT_ID":67677,"ELEMENT_SET_NO":999,"REV_AT_EPOCH":485,"BSTAR":0.00050428287,"MEAN_MOTION_DOT":0.00011849,"MEAN_MOTION_DDOT":0}]
